[{"OBJECT_NAME":"STARLINK-3744","OBJECT_ID":"2022-041AV","EPOCH":"2026-03-09T09:05:36.277440","MEAN_MOTION":15.0883816,"ECCENTRICITY":0.00013952,"INCLINATION":53.218,"RA_OF_ASC_NODE":90.514,"ARG_OF_PERICENTER":81.2981,"MEAN_ANOMALY":278.8169,"EPHEMERIS_TYPE":0,"CLASSIFICATION_TYPE":"U","NORAD_CAT_ID":52304,"ELEMENT_SET_NO":999,"REV_AT_EPOCH":21459,"BSTAR":3.4823403e-5,"MEAN_MOTION_DOT":2.66e-6,"MEAN_MOTION_DDOT":0},{"OBJECT_NAME":"DISKSAT C","OBJECT_ID":"2025-305A","EPOCH":"2026-03-09T19:16:32.318976","MEAN_MOTION":15.07852977,"ECCENTRICITY":0.00045341,"INCLINATION":45.0017,"RA_OF_ASC_NODE":250.1278,"ARG_OF_PERICENTER":310.7706,"MEAN_ANOMALY":49.2776,"EPHEMERIS_TYPE":0,"CLASSIFICATION_TYPE":"U","NORAD_CAT_ID":67219,"ELEMENT_SET_NO":999,"REV_AT_EPOCH":1231,"BSTAR":0.00075564202,"MEAN_MOTION_DOT":0.00011541,"MEAN_MOTION_DDOT":0}]
